{"type":"FeatureCollection","features":[{"type":"Feature","geometry":{"type":"Polygon","coordinates":[[[-60.0814,29.1544],[-60.315,29.0449],[-60.0782,28.8023],[-60.1511,28.6949],[-60.062,28.4466],[-60.0808,28.4356],[-60.1414,28.0519],[-60.3619,28.1527],[-60.5254,28.065],[-60.7041,28.1986],[-60.7334,28.2319],[-60.7308,28.2862],[-60.6577,28.435],[-60.7685,28.6645],[-60.738,28.7528],[-60.8741,28.9512],[-61.0377,28.9942],[-61.0884,29.045],[-61.1053,29.3751],[-61.1466,29.4211],[-61.1282,29.5649],[-61.5324,29.8032],[-61.5721,29.784],[-61.6704,29.7918],[-61.7189,29.9955],[-61.684,30.0786],[-61.7192,30.2489],[-61.9092,30.3767],[-62.0281,30.3116],[-62.1615,30.3883],[-62.2788,30.5921],[-62.1642,30.8196],[-62.2087,30.8918],[-62.1029,31.0715],[-61.8495,31.1458],[-61.8162,30.9933],[-61.8962,30.7454],[-61.813,30.6328],[-61.5916,30.6565],[-61.3988,30.3479],[-61.3975,30.3473],[-61.4753,30.0777],[-61.3877,29.9303],[-61.101,29.9385],[-61.0887,29.6915],[-60.7953,29.6865],[-60.6359,29.7543],[-60.5125,29.7564],[-60.485,29.7079],[-60.1392,29.6926],[-60.0898,29.66],[-60.2344,29.3848],[-60.0745,29.2683],[-60.0814,29.1544]]]},"properties":{"id":0,"name":"Soburish Plunder","type":"Invasion","color":"url(#hatch1)","cells":[15594,15233,15961,16331,15960,15592,15231,14862,15593,14861,15594,14478,14106,15232,16332,16723,14105,13744,16722]}},{"type":"Feature","geometry":{"type":"Polygon","coordinates":[[[-43.4937,23.5086],[-43.3219,23.3594],[-43.7149,23.1714],[-43.5607,22.9417],[-43.59,22.8101],[-43.4091,22.68],[-43.4066,22.6521],[-43.5669,22.4238],[-43.5034,22.2845],[-43.5751,22.1627],[-43.5232,21.9888],[-43.7988,21.7711],[-43.5669,21.5529],[-43.5603,21.5072],[-43.5187,21.4726],[-43.4128,21.045],[-43.2785,21.0316],[-43.171,20.7965],[-42.859,20.7369],[-42.859,20.5109],[-43.2419,20.4229],[-43.2565,20.4319],[-43.2896,20.5784],[-43.5165,20.6547],[-43.641,20.5469],[-43.4425,20.3205],[-43.5871,20.1066],[-43.5761,20.0836],[-43.633,19.8144],[-43.7676,19.728],[-44.0263,19.8787],[-44.0097,20.1207],[-43.7881,20.2066],[-43.8067,20.5117],[-43.9159,20.6164],[-43.9433,20.7233],[-43.9024,20.8949],[-43.5251,20.6896],[-43.4659,21.0233],[-43.8923,21.0405],[-43.8979,21.0362],[-44.1099,21.0935],[-44.3899,20.8192],[-44.6326,20.8318],[-44.622,21.0052],[-44.6023,21.098],[-44.279,21.236],[-44.5161,21.4416],[-44.5292,21.6518],[-44.5097,21.6631],[-44.5339,22.0251],[-44.6559,22.1326],[-44.4471,22.4181],[-44.2907,22.4041],[-44.171,22.1472],[-44.2631,22.004],[-44.2086,21.6935],[-44.2312,21.6771],[-44.2467,21.3011],[-43.952,21.4709],[-44.0163,21.6903],[-43.8618,21.7857],[-43.9162,22.1093],[-43.8792,22.1476],[-43.8694,22.4228],[-43.7827,22.5107],[-43.808,22.7241],[-43.8413,22.7472],[-44.1611,22.6452],[-44.2355,22.808],[-44.2165,22.9466],[-44.1144,23.0108],[-44.1542,23.2874],[-43.8912,23.4048],[-43.9349,23.7217],[-43.9179,23.7468],[-43.5799,23.6958],[-43.4937,23.5086]]]},"properties":{"id":1,"name":"Bamunzdum Rebellion","type":"Rebels","color":"url(#hatch3)","cells":[21783,22141,22140,22505,21783,22504,22884,23286,23678,24078,24485,24484,24903,24900,24076,25318,25316,23676,25736,23284,26144]}},{"type":"Feature","geometry":{"type":"Polygon","coordinates":[[[-36.8749,25.5337],[-37.1579,25.5066],[-37.2469,25.7972],[-37.2169,25.8267],[-37.3577,26.1239],[-37.284,26.1906],[-37.0503,25.88],[-37.0075,25.8826],[-36.9529,26.0154],[-36.6397,26.0776],[-36.6261,26.0581],[-36.4064,26.0062],[-36.3248,26.0754],[-35.9638,25.8709],[-35.9632,25.8693],[-35.943,25.8577],[-35.6677,26.0938],[-35.6488,26.3306],[-35.5939,26.3919],[-35.3646,26.2682],[-35.3777,25.9742],[-35.345,25.8562],[-35.3474,25.8217],[-35.2758,25.7678],[-35.2133,25.4868],[-35.1086,25.3699],[-35.3932,25.1137],[-35.4786,25.1356],[-35.5668,25.1955],[-35.8816,24.8561],[-35.8924,24.861],[-36.0408,25.1422],[-35.835,25.3899],[-35.8718,25.467],[-36.2815,25.494],[-36.311,25.3806],[-36.5213,25.2658],[-36.7685,25.4236],[-36.7926,25.4256],[-36.8749,25.5337]]]},"properties":{"id":2,"name":"Religionese Proselytism","type":"Proselytism","color":"url(#hatch6)","cells":[19754,19409,19755,19408,19410,19754,19756,19411,19757,19758,19412,20091,20090,19413,19759,19060]}},{"type":"Feature","geometry":{"type":"Polygon","coordinates":[[[61.4975,6.5142],[61.7702,6.484],[61.8169,6.4127],[62.0179,6.4336],[62.216,6.1791],[62.4451,6.2721],[62.5507,5.8357],[62.538,5.8311],[62.1314,5.835],[62.1183,5.8087],[61.9061,5.7654],[61.7473,5.5176],[61.487,5.6378],[61.4086,5.4945],[61.1428,5.4427],[60.9956,5.5222],[60.9711,5.5256],[60.8949,5.6041],[60.9963,5.8557],[60.8717,6.1694],[60.8923,6.1861],[60.8636,6.5387],[60.7953,6.5889],[60.8202,6.758],[61.0142,6.8718],[61.1644,6.8632],[61.1964,6.7926],[61.5223,6.7558],[61.4975,6.5142]]]},"properties":{"id":3,"name":"Chalkanese Proselytism","type":"Proselytism","color":"url(#hatch6)","cells":[42807,42806,42418,42808,43214,43212,43211,42805,42807,42417,43215,43213,43631,43630,43629]}},{"type":"Feature","geometry":{"type":"Polygon","coordinates":[[[-59.0993,28.3481],[-59.0857,28.3411],[-58.905,28.3565],[-58.767,28.2137],[-58.6599,28.2338],[-58.4519,28.4183],[-58.4484,28.6006],[-58.1762,28.6682],[-58.1644,28.6647],[-57.886,28.7572],[-57.7801,28.6579],[-57.7323,28.4748],[-58.0952,28.2977],[-58.1438,28.1553],[-58.1648,28.1417],[-58.1926,28.1396],[-58.3339,28.0541],[-58.4566,27.8642],[-58.7759,28.0026],[-58.7945,27.9822],[-59.1646,27.9208],[-59.186,27.8981],[-59.1994,27.8157],[-59.2575,27.7507],[-59.235,27.5162],[-59.4335,27.3312],[-59.4418,27.2643],[-59.5403,27.2012],[-59.5925,27.0188],[-59.5627,26.8395],[-59.7381,26.8216],[-59.9046,27.0543],[-59.9229,27.0625],[-59.8416,27.316],[-59.8749,27.3796],[-59.6754,27.6818],[-59.6453,27.6825],[-59.6054,27.7083],[-59.529,28.0251],[-59.456,28.0936],[-59.4687,28.3537],[-59.3776,28.4063],[-59.0993,28.3481]]]},"properties":{"id":4,"name":"Silver Cough","type":"Disease","color":"url(#hatch12)","cells":[16726,16727,17126,16728,17516,16726,17515,16729,17881,16338,18248,16339]}},{"type":"Feature","geometry":{"type":"Polygon","coordinates":[[[-23.0692,39.746],[-22.863,39.6363],[-23.0665,39.3934],[-22.8674,39.2465],[-22.6851,39.3394],[-22.6405,39.3021],[-22.7322,38.8961],[-22.5729,38.8422],[-22.5407,38.7723],[-22.4565,38.7003],[-22.3835,38.5637],[-22.4049,38.3321],[-22.5439,38.3419],[-22.7358,38.6219],[-22.8947,38.6529],[-22.9311,38.7502],[-22.8594,38.8739],[-22.9738,39.1114],[-23.257,39.0945],[-23.3108,39.138],[-23.5988,39.0007],[-23.7063,39.2323],[-23.8752,39.3359],[-23.9788,39.3051],[-24.0042,39.324],[-24.2334,39.342],[-24.3338,39.4431],[-24.2481,39.5974],[-24.0761,39.6437],[-24.0609,39.6214],[-23.6492,39.6214],[-23.6394,39.6291],[-23.3648,39.4889],[-23.2626,39.6136],[-23.4366,40.0132],[-23.3364,40.1611],[-23.3351,40.2184],[-23.3388,40.2252],[-23.3334,40.5666],[-23.3894,40.614],[-23.2725,40.97],[-23.3666,41.1515],[-23.062,41.1171],[-23.0501,40.9534],[-22.9016,40.9018],[-22.8117,40.941],[-22.7642,41.0985],[-22.6711,41.1552],[-22.523,41.0071],[-22.3958,41.0284],[-22.3178,40.9504],[-22.4004,40.6439],[-22.4368,40.6359],[-22.453,40.6388],[-22.5421,40.9104],[-22.7533,40.8803],[-22.6583,40.5942],[-22.8926,40.5542],[-22.9133,40.3569],[-23.1929,40.2273],[-22.8409,40.0687],[-23.0712,39.8538],[-23.0692,39.746]]]},"properties":{"id":5,"name":"Blind Malaria","type":"Disease","color":"url(#hatch12)","cells":[5639,5892,5383,5639,5133,6142,6143,5891,6144,4887,6400,4647,5890,4886,5889,4644,4885,4889,6652]}},{"type":"Feature","geometry":{"type":"Polygon","coordinates":[[[-8.1351,27.7303],[-8.0998,27.6923],[-7.7037,27.6395],[-7.6247,27.6909],[-7.4375,27.684],[-7.4027,27.6027],[-7.4072,27.3533],[-7.4098,27.3484],[-7.3585,27.1296],[-7.6537,26.9744],[-7.3156,26.7616],[-7.1788,26.8312],[-6.9888,26.6073],[-6.9741,26.476],[-7.1656,26.2913],[-7.0911,26.1213],[-7.1765,26.0125],[-7.3985,25.9523],[-7.4102,25.7732],[-7.7465,25.6737],[-7.7272,25.5409],[-8.1219,25.3159],[-8.1026,25.1374],[-7.7142,25.1483],[-7.6938,24.8562],[-7.9096,24.7377],[-7.6964,24.4037],[-7.7113,24.3908],[-8.1173,24.4784],[-8.1564,24.4326],[-8.1182,24.1062],[-8.1247,24.102],[-8.4595,24.0963],[-8.479,24.0807],[-8.7176,24.0014],[-8.7381,24.0138],[-8.8852,24.3976],[-8.9335,24.4014],[-9.0126,24.3417],[-9.3665,24.3908],[-9.429,24.3109],[-9.6446,24.3203],[-9.752,24.2307],[-9.7973,24.1188],[-10.0346,24.0276],[-10.109,24.0973],[-10.2317,24.3691],[-10.0197,24.507],[-9.9744,24.6359],[-10.0843,24.8252],[-10.3843,24.6853],[-10.5263,24.8265],[-10.3787,25.1235],[-10.4011,25.1563],[-10.7978,25.1235],[-10.6559,24.8188],[-10.8232,24.6683],[-11.0732,24.7912],[-11.0981,24.866],[-11.271,24.9217],[-11.3979,25.0874],[-11.3106,25.3462],[-11.3936,25.4451],[-11.4072,25.696],[-11.4181,25.7157],[-11.7074,25.8228],[-11.7719,26.0627],[-11.7684,26.0675],[-11.3693,26.215],[-11.4713,26.3522],[-11.7164,26.3882],[-11.7913,26.6145],[-11.6952,26.7106],[-11.5669,26.7484],[-11.5268,26.8251],[-11.4034,26.9555],[-11.1959,26.9745],[-11.1899,26.9852],[-11.1197,27.2729],[-10.9605,27.3797],[-11.0711,27.6633],[-10.9202,27.7815],[-10.8238,28.0017],[-10.9173,28.1176],[-10.7743,28.3891],[-10.8187,28.4357],[-10.8772,28.7236],[-10.8049,28.7854],[-10.7892,28.9449],[-10.7079,29.002],[-10.3891,29.0444],[-10.5663,29.3461],[-10.4954,29.3888],[-10.1531,29.3236],[-10.2938,29.0558],[-10.0281,28.948],[-9.7505,29.0879],[-9.6912,29.0363],[-9.4497,28.9823],[-9.3677,29.0224],[-9.4666,29.4484],[-9.4489,29.4738],[-9.1609,29.4925],[-9.1397,29.6618],[-9.05,29.7329],[-8.7924,29.7672],[-8.725,29.7056],[-8.879,29.3157],[-9.0869,29.3811],[-9.3343,29.0282],[-9.1645,28.9345],[-9.101,28.7487],[-8.7611,28.6721],[-8.7628,28.5614],[-8.4838,28.4517],[-8.3703,28.4906],[-8.1928,28.41],[-8.0187,28.5194],[-7.8415,28.4013],[-7.7866,28.2508],[-7.8573,28.0809],[-8.0131,28.015],[-8.1351,27.7303]]]},"properties":{"id":6,"name":"Yhorionese Famine","type":"Disaster","color":"url(#hatch5)","cells":[18773,18772,18404,18403,19141,18037,18774,18036,19142,19140,18402,18773,18405,18771,18406,19138,18405,17675,19140,19494,18770,18771,18038,17293,17674,19839,18039,19492,17676,17673,18040,19139,19494,18775,16890,19493,18769,17294,20170,18035,19837,19836,19136,19143,17292,19492,17678,19838,19137,19491,20501,19489,19496,16888,16889,18034,19497,18038,18769,16891,18041,20168,19495,16498,19840,17677,16499,19490,17671,19137,18401,19493,17291,18768,20169,17676,19145,20500,18401,19144,16497,20172,18407,18033,19498,19493,20168,20167,18400,18040,20171,19144,20503,19491,16125,19835,18039,20499,20500,18399,18408,19834,16497,19841,16500,17295,19838,19135,16892,18776,20839,20165,16121,19146,18398,17295,20171,20500,20166,20502,17296,16887,18400,19842,18778,16501,20496,21182,20504,17670,16123,18766,16122,18032,19488,18042,19144,16124,17290,18779,17672,17679,18409,17679,19842,20838,16498,17680,20835,16501,20164,18768,20169,15757,19147,17290,16886,18777,16496,16500,20498,21183,20837,20836,20840,19490,19841,20499,19835,16894,16124,16889,20173,19499,15389,20841,18777,19843,17289,16893,21178,18041,15754,20505,19498,18767,19487,19833]}},{"type":"Feature","geometry":{"type":"Polygon","coordinates":[[[-45.89,30.5902],[-45.9491,30.4491],[-46.1217,30.4033],[-46.3443,30.622],[-46.517,30.528],[-46.5085,30.2996],[-46.1426,30.3677],[-46.1896,29.9703],[-46.1828,29.9657],[-45.892,30.0047],[-45.8559,30.271],[-45.5951,30.3389],[-45.5654,30.4313],[-45.1671,30.4144],[-45.1974,30.6227],[-44.9914,30.7503],[-44.9041,30.861],[-44.9037,30.9125],[-44.7897,31.0219],[-44.5765,30.9592],[-44.4399,31.1841],[-44.4213,31.3267],[-44.7945,31.2099],[-44.8978,31.3102],[-44.6797,31.6531],[-44.4155,31.3349],[-44.3454,31.3512],[-44.2216,31.4062],[-44.1993,31.7697],[-44.6907,31.704],[-44.6992,31.7161],[-44.9422,31.7788],[-45.1564,31.6038],[-45.26,31.6877],[-45.5172,31.7853],[-45.5482,31.9809],[-45.5979,32.0341],[-45.5747,32.3523],[-45.8699,32.5014],[-45.9132,32.4531],[-46.0339,32.1023],[-46.091,32.0807],[-46.1747,31.9545],[-46.5904,31.9924],[-46.6096,31.9731],[-46.5815,31.763],[-46.6168,31.6464],[-46.6162,31.5048],[-46.232,31.4545],[-46.3938,31.0441],[-46.2252,30.9283],[-46.2113,30.859],[-45.9726,30.7076],[-45.89,30.5902]]]},"properties":{"id":7,"name":"Bosham Eruption","type":"Eruption","color":"url(#hatch7)","cells":[13467,13155,13468,13795,13794,13793,13466,13153,12828,12829,13154,12498,12830,13156,13796,13157,13159,13469,13470,14155,14154,14525,14152]}},{"type":"Feature","geometry":{"type":"Polygon","coordinates":[[[42.6923,-7.6086],[42.977,-7.3367],[43.1101,-7.5288],[43.0302,-7.6974],[42.7456,-7.7489],[42.7002,-7.7315],[42.5924,-7.8196],[42.3878,-7.8626],[42.3348,-7.8592],[42.2414,-8.1689],[42.0197,-8.2335],[41.967,-8.4555],[41.6674,-8.4102],[41.6025,-8.1962],[41.7698,-8.0481],[41.8963,-8.0459],[41.9578,-7.9365],[42.1829,-7.7755],[42.225,-7.7746],[42.3092,-7.4539],[42.5134,-7.3947],[42.6923,-7.6086]]]},"properties":{"id":8,"name":"Rerian Avalanche","type":"Avalanche","color":"url(#hatch5)","cells":[58627,58626,58969,59300]}},{"type":"Feature","geometry":{"type":"Polygon","coordinates":[[[-48.5908,17.6694],[-48.5007,17.8678],[-48.1216,17.7303],[-48.0986,17.7531],[-48.1379,18.0267],[-47.8793,18.1708],[-47.9403,18.3803],[-47.9104,18.4395],[-47.6122,18.4608],[-47.5517,18.3894],[-47.2793,18.4702],[-47.3039,18.7045],[-47.2879,18.7198],[-47.2038,19.1053],[-47.1049,19.1279],[-47.0837,19.3816],[-46.9433,19.5622],[-46.9821,19.6711],[-46.9365,19.7325],[-46.9409,19.9917],[-46.8225,20.0275],[-46.7925,20.3688],[-46.9018,20.3824],[-47.0365,20.643],[-47.0673,20.6435],[-47.346,20.8655],[-47.3284,20.8952],[-47.493,21.2103],[-47.6401,21.1842],[-47.6003,20.7703],[-47.5106,20.7383],[-47.4234,20.4972],[-47.399,20.4769],[-47.3362,20.347],[-47.1686,20.215],[-47.1698,20.1155],[-47.1935,20.0744],[-47.2329,19.7689],[-47.3039,19.7301],[-47.3255,19.5069],[-47.4901,19.3391],[-47.4641,19.1738],[-47.4511,19.1595],[-47.5639,18.7983],[-47.6538,18.7528],[-47.7733,18.7833],[-47.9599,18.6957],[-48.1024,18.7333],[-48.111,18.7299],[-48.2382,18.3755],[-48.3016,18.3306],[-48.2807,18.139],[-48.5202,18.0072],[-48.8048,18.1218],[-48.8091,18.1189],[-48.8047,17.6978],[-48.7594,17.6394],[-48.5908,17.6694]]]},"properties":{"id":9,"name":"Clitletonese Fault","type":"Fault","color":"url(#hatch2)","cells":[28640,28641,28205,27779,27780,27781,27374,26962,26545,26134,25726,25306,25305,24891]}},{"type":"Feature","geometry":{"type":"Polygon","coordinates":[[[-40.2788,3.3213],[-40.2627,3.474],[-40.3423,3.6272],[-40.2988,3.8385],[-40.342,3.8868],[-40.2969,4.0985],[-40.493,4.3822],[-40.4844,4.3865],[-40.3178,4.5895],[-40.3363,4.813],[-40.6049,4.8341],[-40.6165,4.8168],[-40.7166,4.5142],[-41.005,4.783],[-41.0316,4.7969],[-41.2098,4.7139],[-41.2862,5.1536],[-41.596,5.2045],[-41.5939,5.3807],[-41.6753,5.5499],[-41.8731,5.6],[-41.9349,5.8141],[-42.1935,5.877],[-42.2067,5.8684],[-42.0968,5.5819],[-42.0924,5.5784],[-41.9255,5.5744],[-42.0029,5.3234],[-41.8461,5.1426],[-41.6187,5.1765],[-41.5831,4.8318],[-41.3118,4.6984],[-41.2165,4.7064],[-41.1345,4.5014],[-40.78,4.4324],[-40.7084,4.4544],[-40.5873,4.3634],[-40.6159,4.1974],[-40.5201,3.9585],[-40.8024,3.7699],[-40.8348,3.7148],[-40.4676,3.608],[-40.654,3.3781],[-40.4494,3.2216],[-40.2788,3.3213]]]},"properties":{"id":10,"name":"Bhurk Flood","type":"Flood","color":"url(#hatch13)","cells":[46081,45709,45332,44543,44541,44140,43732,43319]}},{"type":"Feature","geometry":{"type":"MultiPolygon","coordinates":[[[[27.7499,-19.159],[27.6816,-19.2639],[27.6666,-19.4677],[27.6705,-19.4796],[27.6333,-19.5626],[27.5116,-19.6115],[27.2341,-19.4899],[27.156,-19.5954],[27.2019,-19.7262],[27.3256,-19.7809],[27.3927,-19.993],[27.3922,-19.9946],[27.2997,-20.0637],[27.2786,-20.1275],[27.1177,-20.1998],[27.0847,-20.3442],[27.1534,-20.4605],[27.1861,-20.4737],[27.3691,-20.3152],[27.3701,-20.3131],[27.5488,-20.2829],[27.5693,-20.1252],[27.6217,-20.1026],[27.6893,-20.0209],[27.6229,-19.8742],[27.7082,-19.7575],[27.9878,-19.8719],[28.1237,-19.6266],[28.1223,-19.6243],[27.8014,-19.4887],[27.9919,-19.271],[28.1102,-19.3286],[28.1909,-19.107],[28.4162,-19.1287],[28.4738,-18.923],[28.4318,-18.8621],[28.4848,-18.6754],[28.7607,-18.7083],[28.8064,-18.6698],[28.6173,-18.4162],[28.4597,-18.5163],[28.3259,-18.4773],[28.0773,-18.6759],[28.1138,-18.8034],[28.0502,-18.9376],[27.9128,-19.0178],[27.8629,-19.1081],[27.7499,-19.159]]],[[[28.4212,-19.7447],[28.5884,-19.7931],[28.6804,-19.9819],[28.6129,-20.093],[28.5548,-20.1143],[28.4393,-20.2585],[28.4281,-20.2631],[28.3313,-20.3689],[28.21,-20.3779],[28.1999,-20.3741],[28.0197,-20.383],[27.9516,-20.1131],[28.0207,-19.9658],[28.1057,-20.0135],[28.2548,-20.0182],[28.3949,-19.8895],[28.4212,-19.7447]]],[[[25.4233,-16.9523],[25.4224,-16.9527],[25.3289,-17.1416],[25.3848,-17.2592],[25.5186,-17.2965],[25.6474,-17.2669],[25.6952,-17.2942],[25.7859,-17.3024],[25.9214,-17.2301],[25.9912,-17.2428],[26.1414,-17.1673],[26.0925,-16.8547],[26.024,-16.8405],[25.8834,-17.0114],[25.7256,-16.9979],[25.6425,-17.105],[25.4233,-16.9523]]],[[[26.5999,-16.6732],[26.6581,-16.7045],[26.9545,-16.669],[27.0314,-16.5772],[27.1703,-16.6394],[27.304,-16.6011],[27.4477,-16.6713],[27.6084,-16.6424],[27.6534,-16.7272],[27.8292,-16.8392],[27.749,-16.9933],[27.5952,-17.1167],[27.5622,-17.1073],[27.5169,-17.0205],[27.3215,-16.9289],[27.223,-16.951],[27.1942,-16.9329],[26.9819,-16.9329],[26.9353,-16.967],[26.7898,-16.9294],[26.5953,-17.1103],[26.5801,-17.112],[26.5317,-17.1505],[26.3763,-17.1397],[26.2762,-16.7931],[26.3187,-16.7524],[26.4847,-16.7401],[26.5999,-16.6732]]],[[[29.0673,-19.1447],[29.1091,-19.1527],[29.2716,-19.597],[29.2198,-19.6414],[29.1368,-19.6724],[28.9286,-19.5006],[28.899,-19.2926],[29.0673,-19.1447]]]]},"properties":{"id":11,"name":"Hatford Tsunami","type":"Tsunami","color":"url(#hatch13)","cells":[66910,66710,67115,67111,67110,66709,67323,67112,66509,67328,67329,67529,67527,67523,65720,65721,65521,65522,65520,65523,65524,65525,65526,65527,66510,67521,67119]}}]}